{
 "type": "FeatureCollection",
 "features": [
  {
   "type": "Feature",
   "geometry": {
    "type": "Point",
    "coordinates": [
     -3.88336111,
     5.32786111
    ]
   },
   "properties": {
    "name": "Zone inondee #1",
    "source": "Releve ZONES INONDEES"
   }
  },
  {
   "type": "Feature",
   "geometry": {
    "type": "Point",
    "coordinates": [
     -4.01255556,
     5.37019444
    ]
   },
   "properties": {
    "name": "Zone inondee #2",
    "source": "Releve ZONES INONDEES"
   }
  },
  {
   "type": "Feature",
   "geometry": {
    "type": "Point",
    "coordinates": [
     -4.01480556,
     5.34605556
    ]
   },
   "properties": {
    "name": "Zone inondee #3",
    "source": "Releve ZONES INONDEES"
   }
  },
  {
   "type": "Feature",
   "geometry": {
    "type": "Point",
    "coordinates": [
     -4.01397222,
     5.33955556
    ]
   },
   "properties": {
    "name": "Zone inondee #4",
    "source": "Releve ZONES INONDEES"
   }
  },
  {
   "type": "Feature",
   "geometry": {
    "type": "Point",
    "coordinates": [
     -4.01347222,
     5.33683333
    ]
   },
   "properties": {
    "name": "Zone inondee #5",
    "source": "Releve ZONES INONDEES"
   }
  },
  {
   "type": "Feature",
   "geometry": {
    "type": "Point",
    "coordinates": [
     -4.01127778,
     5.37388889
    ]
   },
   "properties": {
    "name": "Zone inondee #6",
    "source": "Releve ZONES INONDEES"
   }
  },
  {
   "type": "Feature",
   "geometry": {
    "type": "Point",
    "coordinates": [
     -4.01311111,
     5.36938889
    ]
   },
   "properties": {
    "name": "Zone inondee #7",
    "source": "Releve ZONES INONDEES"
   }
  },
  {
   "type": "Feature",
   "geometry": {
    "type": "Point",
    "coordinates": [
     -3.92855556,
     5.37277778
    ]
   },
   "properties": {
    "name": "Zone inondee #8",
    "source": "Releve ZONES INONDEES"
   }
  },
  {
   "type": "Feature",
   "geometry": {
    "type": "Point",
    "coordinates": [
     -4.05997222,
     5.51277778
    ]
   },
   "properties": {
    "name": "Zone inondee #9",
    "source": "Releve ZONES INONDEES"
   }
  },
  {
   "type": "Feature",
   "geometry": {
    "type": "Point",
    "coordinates": [
     -3.87077778,
     5.36941667
    ]
   },
   "properties": {
    "name": "Zone inondee #10",
    "source": "Releve ZONES INONDEES"
   }
  },
  {
   "type": "Feature",
   "geometry": {
    "type": "Point",
    "coordinates": [
     -4.01936111,
     5.30769444
    ]
   },
   "properties": {
    "name": "Zone inondee #11",
    "source": "Releve ZONES INONDEES"
   }
  },
  {
   "type": "Feature",
   "geometry": {
    "type": "Point",
    "coordinates": [
     -3.94711111,
     5.32838889
    ]
   },
   "properties": {
    "name": "Zone inondee #12",
    "source": "Releve ZONES INONDEES"
   }
  },
  {
   "type": "Feature",
   "geometry": {
    "type": "Point",
    "coordinates": [
     -4.01908333,
     5.30830556
    ]
   },
   "properties": {
    "name": "Zone inondee #13",
    "source": "Releve ZONES INONDEES"
   }
  },
  {
   "type": "Feature",
   "geometry": {
    "type": "Point",
    "coordinates": [
     -3.87077778,
     5.32208333
    ]
   },
   "properties": {
    "name": "Zone inondee #14",
    "source": "Releve ZONES INONDEES"
   }
  },
  {
   "type": "Feature",
   "geometry": {
    "type": "Point",
    "coordinates": [
     -4.01388889,
     5.29783333
    ]
   },
   "properties": {
    "name": "Zone inondee #15",
    "source": "Releve ZONES INONDEES"
   }
  },
  {
   "type": "Feature",
   "geometry": {
    "type": "Point",
    "coordinates": [
     -4.01433333,
     5.29783333
    ]
   },
   "properties": {
    "name": "Zone inondee #16",
    "source": "Releve ZONES INONDEES"
   }
  },
  {
   "type": "Feature",
   "geometry": {
    "type": "Point",
    "coordinates": [
     -3.86508333,
     5.33119444
    ]
   },
   "properties": {
    "name": "Zone inondee #17",
    "source": "Releve ZONES INONDEES"
   }
  },
  {
   "type": "Feature",
   "geometry": {
    "type": "Point",
    "coordinates": [
     -3.95319444,
     5.37905556
    ]
   },
   "properties": {
    "name": "Zone inondee #18",
    "source": "Releve ZONES INONDEES"
   }
  },
  {
   "type": "Feature",
   "geometry": {
    "type": "Point",
    "coordinates": [
     -4.01336111,
     5.29825
    ]
   },
   "properties": {
    "name": "Zone inondee #19",
    "source": "Releve ZONES INONDEES"
   }
  },
  {
   "type": "Feature",
   "geometry": {
    "type": "Point",
    "coordinates": [
     -3.85505556,
     5.33813889
    ]
   },
   "properties": {
    "name": "Zone inondee #20",
    "source": "Releve ZONES INONDEES"
   }
  },
  {
   "type": "Feature",
   "geometry": {
    "type": "Point",
    "coordinates": [
     -4.06830556,
     5.43252778
    ]
   },
   "properties": {
    "name": "Zone inondee #21",
    "source": "Releve ZONES INONDEES"
   }
  },
  {
   "type": "Feature",
   "geometry": {
    "type": "Point",
    "coordinates": [
     -4.00030556,
     5.29652778
    ]
   },
   "properties": {
    "name": "Zone inondee #22",
    "source": "Releve ZONES INONDEES"
   }
  },
  {
   "type": "Feature",
   "geometry": {
    "type": "Point",
    "coordinates": [
     -4.05041667,
     5.42444444
    ]
   },
   "properties": {
    "name": "Zone inondee #23",
    "source": "Releve ZONES INONDEES"
   }
  },
  {
   "type": "Feature",
   "geometry": {
    "type": "Point",
    "coordinates": [
     -3.93486111,
     5.33144444
    ]
   },
   "properties": {
    "name": "Zone inondee #24",
    "source": "Releve ZONES INONDEES"
   }
  },
  {
   "type": "Feature",
   "geometry": {
    "type": "Point",
    "coordinates": [
     -3.84041667,
     5.32611111
    ]
   },
   "properties": {
    "name": "Zone inondee #25",
    "source": "Releve ZONES INONDEES"
   }
  },
  {
   "type": "Feature",
   "geometry": {
    "type": "Point",
    "coordinates": [
     -4.04472222,
     5.43375
    ]
   },
   "properties": {
    "name": "Zone inondee #26",
    "source": "Releve ZONES INONDEES"
   }
  },
  {
   "type": "Feature",
   "geometry": {
    "type": "Point",
    "coordinates": [
     -3.83741667,
     5.32511111
    ]
   },
   "properties": {
    "name": "Zone inondee #27",
    "source": "Releve ZONES INONDEES"
   }
  },
  {
   "type": "Feature",
   "geometry": {
    "type": "Point",
    "coordinates": [
     -3.97180556,
     5.38311111
    ]
   },
   "properties": {
    "name": "Zone inondee #28",
    "source": "Releve ZONES INONDEES"
   }
  },
  {
   "type": "Feature",
   "geometry": {
    "type": "Point",
    "coordinates": [
     -4.04291667,
     5.35994444
    ]
   },
   "properties": {
    "name": "Zone inondee #29",
    "source": "Releve ZONES INONDEES"
   }
  },
  {
   "type": "Feature",
   "geometry": {
    "type": "Point",
    "coordinates": [
     -3.97566667,
     5.39297222
    ]
   },
   "properties": {
    "name": "Zone inondee #30",
    "source": "Releve ZONES INONDEES"
   }
  },
  {
   "type": "Feature",
   "geometry": {
    "type": "Point",
    "coordinates": [
     -4.01102778,
     5.30025
    ]
   },
   "properties": {
    "name": "Zone inondee #31",
    "source": "Releve ZONES INONDEES"
   }
  },
  {
   "type": "Feature",
   "geometry": {
    "type": "Point",
    "coordinates": [
     -3.85975,
     5.34125
    ]
   },
   "properties": {
    "name": "Zone inondee #32",
    "source": "Releve ZONES INONDEES"
   }
  },
  {
   "type": "Feature",
   "geometry": {
    "type": "Point",
    "coordinates": [
     -4.00583333,
     5.43858333
    ]
   },
   "properties": {
    "name": "Zone inondee #33",
    "source": "Releve ZONES INONDEES"
   }
  },
  {
   "type": "Feature",
   "geometry": {
    "type": "Point",
    "coordinates": [
     -4.04261111,
     5.33797222
    ]
   },
   "properties": {
    "name": "Zone inondee #34",
    "source": "Releve ZONES INONDEES"
   }
  },
  {
   "type": "Feature",
   "geometry": {
    "type": "Point",
    "coordinates": [
     -4.01222222,
     5.43519444
    ]
   },
   "properties": {
    "name": "Zone inondee #35",
    "source": "Releve ZONES INONDEES"
   }
  },
  {
   "type": "Feature",
   "geometry": {
    "type": "Point",
    "coordinates": [
     -3.95569444,
     5.29244444
    ]
   },
   "properties": {
    "name": "Zone inondee #36",
    "source": "Releve ZONES INONDEES"
   }
  },
  {
   "type": "Feature",
   "geometry": {
    "type": "Point",
    "coordinates": [
     -4.00358333,
     5.36844444
    ]
   },
   "properties": {
    "name": "Zone inondee #37",
    "source": "Releve ZONES INONDEES"
   }
  },
  {
   "type": "Feature",
   "geometry": {
    "type": "Point",
    "coordinates": [
     -4.00522222,
     5.36844444
    ]
   },
   "properties": {
    "name": "Zone inondee #38",
    "source": "Releve ZONES INONDEES"
   }
  },
  {
   "type": "Feature",
   "geometry": {
    "type": "Point",
    "coordinates": [
     -3.95225,
     5.28611111
    ]
   },
   "properties": {
    "name": "Zone inondee #39",
    "source": "Releve ZONES INONDEES"
   }
  },
  {
   "type": "Feature",
   "geometry": {
    "type": "Point",
    "coordinates": [
     -4.00863889,
     5.36847222
    ]
   },
   "properties": {
    "name": "Zone inondee #40",
    "source": "Releve ZONES INONDEES"
   }
  },
  {
   "type": "Feature",
   "geometry": {
    "type": "Point",
    "coordinates": [
     -4.01177778,
     5.36713889
    ]
   },
   "properties": {
    "name": "Zone inondee #41",
    "source": "Releve ZONES INONDEES"
   }
  },
  {
   "type": "Feature",
   "geometry": {
    "type": "Point",
    "coordinates": [
     -3.95022222,
     5.28369444
    ]
   },
   "properties": {
    "name": "Zone inondee #42",
    "source": "Releve ZONES INONDEES"
   }
  },
  {
   "type": "Feature",
   "geometry": {
    "type": "Point",
    "coordinates": [
     -3.82411111,
     5.32033333
    ]
   },
   "properties": {
    "name": "Zone inondee #43",
    "source": "Releve ZONES INONDEES"
   }
  },
  {
   "type": "Feature",
   "geometry": {
    "type": "Point",
    "coordinates": [
     -3.87452778,
     5.237
    ]
   },
   "properties": {
    "name": "Zone inondee #44",
    "source": "Releve ZONES INONDEES"
   }
  },
  {
   "type": "Feature",
   "geometry": {
    "type": "Point",
    "coordinates": [
     -3.88605556,
     5.33363889
    ]
   },
   "properties": {
    "name": "Zone inondee #45",
    "source": "Releve ZONES INONDEES"
   }
  },
  {
   "type": "Feature",
   "geometry": {
    "type": "Point",
    "coordinates": [
     -3.89966667,
     5.25111111
    ]
   },
   "properties": {
    "name": "Zone inondee #46",
    "source": "Releve ZONES INONDEES"
   }
  },
  {
   "type": "Feature",
   "geometry": {
    "type": "Point",
    "coordinates": [
     -3.88936111,
     5.37313889
    ]
   },
   "properties": {
    "name": "Zone inondee #48",
    "source": "Releve ZONES INONDEES"
   }
  }
 ]
}