{
  "type" : "FeatureCollection",
  "features" : [{"type":"Feature","id":1,"geometry":{"type":"Polygon","coordinates":[[[-4.127411912679146,5.3548466183368451],[-4.1399392775727177,5.3563501705667163],[-4.1617183681842818,5.3584151437290979],[-4.17432863501661,5.3603055319098436],[-4.1802550681016299,5.3629743565107386],[-4.2001192683262323,5.3625528097205253],[-4.2222719513392271,5.3604030764143289],[-4.2375539337174937,5.3611381201009971],[-4.24748385340264,5.3599693096711007],[-4.2593182384970278,5.3561162802075541],[-4.2646627485544339,5.3543823139813931],[-4.2675001928009291,5.3409757327432281],[-4.2674801499365653,5.3312123911760532],[-4.2620925150867226,5.3116966550145222],[-4.2559578877390365,5.3003376364232873],[-4.2453092927713314,5.2777080647114518],[-4.2259090533734085,5.2795498438619557],[-4.2155222878005105,5.2202109559758521],[-4.1989657974334973,5.2222376800331585],[-4.1966673160784822,5.2226174164786245],[-4.1952745861559544,5.2226404201149697],[-4.193333328197494,5.2230273789249075],[-4.1913778282199941,5.2231899395485035],[-4.185498172823694,5.2244871066384801],[-4.1835231073608581,5.2248972784886272],[-4.180478364137838,5.2254626519577103],[-4.1789633888523756,5.2258578127144562],[-4.1769965668045783,5.2260090467311073],[-4.1743529492544491,5.2263910507595055],[-4.1723620946600386,5.2265089635662845],[-4.170910616379385,5.2264873668584633],[-4.1695430293852578,5.2267013377095681],[-4.1677867612627404,5.2271319717034093],[-4.166393035152347,5.2270876455369644],[-4.1646361562331258,5.2274956607769543],[-4.1631661017702566,5.2278002560732899],[-4.1596340769190574,5.228043655450592],[-4.1580714785551152,5.2283156235857211],[-4.1564874147929984,5.2287221681377218],[-4.154661704965835,5.2291195441365907],[-4.1526069399163861,5.229609479807114],[-4.1506910060211712,5.2301647290753985],[-4.1477562803627661,5.2303470471942495],[-4.1452930348207353,5.2304126045792119],[-4.1433622201115092,5.2306987784806944],[-4.1409961667269961,5.2311909427603602],[-4.1389156745839681,5.2315011189360856],[-4.1328636496231619,5.2285142989515645],[-4.1356729754937946,5.2877961313584265],[-4.1356226957048419,5.2900675946432552],[-4.1357031582584138,5.2944507747687171],[-4.14093949634543,5.3081450981051042],[-4.1424657865886143,5.3094814667041668],[-4.1470426608446838,5.3107132439238569],[-4.1435949070523845,5.3156326348773284],[-4.1435982086761065,5.3351155819064999],[-4.127411912679146,5.3548466183368451]]]},"properties":{"OBJECTID":1,"NOMS":"Songon","données":" ","Shape_Length":57941.762039596455,"Shape_Area":177742281.45937532}},{"type":"Feature","id":2,"geometry":{"type":"Polygon","coordinates":[[[-4.0925920837292296,5.4348368933385371],[-4.0778690709440468,5.4514113639068364],[-4.0350748557287393,5.4593975084483031],[-4.0164673867794676,5.4596734904168587],[-4.0148515678053061,5.4589073891692239],[-4.0124124827776368,5.458016038789907],[-4.0105134578330546,5.45791012803718],[-4.0090552480796724,5.4579436704164666],[-4.0079238005650186,5.4582265325213992],[-4.0069601104450356,5.4591439653256533],[-4.006481288474844,5.4598938158033707],[-4.0056244061155066,5.4610954241046947],[-4.0046079020420748,5.4624849849422299],[-4.0036575225120528,5.46361099525312],[-4.0026927527606988,5.4643972713613866],[-4.0018221438240209,5.4653247192546175],[-4.0011682861247211,5.4659883655549377],[-4.0006768403858093,5.4666172560487372],[-4.0000117330080682,5.4673024024821677],[-3.9991622070605874,5.4680212095066345],[-3.9970700017939338,5.4683005668107629],[-3.9963286068271593,5.4682294374476044],[-3.9948213247515363,5.4679453208402959],[-3.9934398720801343,5.4675060937524744],[-3.9926379478391989,5.4671620094081135],[-3.9916597718261806,5.4664999388976838],[-3.9904147126204861,5.4658083447788286],[-3.989366835437731,5.4651254677411236],[-3.9880996585697392,5.4645317050473787],[-3.9869855304699455,5.4642118691548029],[-3.9855377785894546,5.464102313511976],[-3.9842304267796615,5.4641231137907162],[-3.9830388307734799,5.4642098645474224],[-3.9820450660840456,5.4643596056629873],[-3.9808996890250858,5.4644230984317037],[-3.9794097753221256,5.4647534188247517],[-3.9775610179940175,5.4650526621360092],[-3.9760275746417619,5.4656787103328073],[-3.9754538582802095,5.4662093521433324],[-3.9750712820230558,5.4673745425983249],[-3.974614535045951,5.4680254080626067],[-3.9739023732085474,5.4685901933584447],[-3.9721655760372996,5.4685376085840023],[-3.9715003169293177,5.4679287003928172],[-3.9710646432415468,5.4671317317114356],[-3.9707898535964716,5.4662236984951429],[-3.9696664475314507,5.4646951783337823],[-3.9673510961004808,5.4688354034831983],[-3.9639320981969992,5.4813334884170102],[-3.9613624362947926,5.4873685253575104],[-3.9575030476016995,5.4934056282027015],[-3.9557923974751765,5.4990085003199418],[-3.9575209494224843,5.5046058568130167],[-3.9609657072700482,5.5080465415701552],[-3.9661322218293646,5.5127767408963626],[-3.981614528363234,5.5161976134888748],[-3.9889251010899676,5.5174778281351955],[-3.9915174355699112,5.5252274526301468],[-3.9915267535976757,5.5308275045695749],[-3.9932629610825212,5.5407324042023598],[-3.9894079877918034,5.5493543466974202],[-3.9898458240321921,5.5540921312401474],[-3.9932917941486026,5.5579633116722391],[-3.999748838241918,5.5626909143996537],[-4.0027642509707047,5.56613197566457],[-4.0027744755485761,5.5721627717243578],[-4.0027891015969184,5.5807781924967941],[-4.0027932056157756,5.5831932233728283],[-4.0035436040510035,5.583164807311479],[-4.0059024026180259,5.5829821347280015],[-4.0073722041581794,5.5829490903055756],[-4.009130799516881,5.5828584494825195],[-4.0097245865552607,5.582839873243195],[-4.0118287578832277,5.5848465510586651],[-4.0140980646734086,5.5879117384025339],[-4.0142480013003343,5.591100990920836],[-4.0126456984634649,5.5940666202890643],[-4.0119241802778864,5.5972276238463294],[-4.012105911603876,5.5981570513983199],[-4.03917860165215,5.593554809295207],[-4.0935766181765914,5.5899342153975633],[-4.0954902321269051,5.590396147094264],[-4.1006572622439315,5.5865355074661904],[-4.1047551196167902,5.5796937967571241],[-4.1063273151450028,5.5746529935827782],[-4.1108873254555078,5.4817446983182796],[-4.1174805030256447,5.4594563160948066],[-4.1155369343677988,5.4562115710317913],[-4.0925920837292296,5.4348368933385371]]]},"properties":{"OBJECTID":2,"NOMS":"Anyama","données":"OUI","Shape_Length":63239.752862718189,"Shape_Area":211870147.23270148}},{"type":"Feature","id":3,"geometry":{"type":"Polygon","coordinates":[[[-3.8323086316554837,5.3890433678967842],[-3.8360101558468687,5.3906502843250932],[-3.843179717422839,5.3947090097113986],[-3.8582392134028347,5.4054577653085172],[-3.8742561555369872,5.4174013215584784],[-3.8759298694797861,5.4188348719121899],[-3.9010080659891706,5.4211913303686554],[-3.9161819297656981,5.4185335914392114],[-3.91562043323776,5.3876779670542474],[-3.929194602114177,5.3591922799009035],[-3.9294032085721908,5.3578255508448498],[-3.9282850306628285,5.3233105430529966],[-3.9113661826633606,5.3206587677209285],[-3.9039626672197958,5.319473034277415],[-3.860008789750502,5.3046974515332428],[-3.8390010853783072,5.3073589640479018],[-3.8292158232260523,5.3104834879111431],[-3.8237263852136505,5.3121661600613832],[-3.819911462874841,5.3162398903654671],[-3.8197273457014256,5.3574052888215524],[-3.8232546871123221,5.3687263786515205],[-3.823810613423166,5.3688501310123575],[-3.8250370632512718,5.3693861232452438],[-3.8261419646192119,5.3701371098028368],[-3.82727942882065,5.3709818977639454],[-3.8283682109985406,5.371905897996335],[-3.8292902727469622,5.3730093378101724],[-3.8297607646519443,5.3740902104754893],[-3.829777802928878,5.3752180578564692],[-3.8296192329340339,5.376420770032686],[-3.8295674358542429,5.3775345772724057],[-3.8289300898532224,5.3784156917013677],[-3.8285065948058565,5.3795543142087565],[-3.8282641134528368,5.380860033931457],[-3.8285280565362405,5.3818665612736654],[-3.8293213870153928,5.3839092173157752],[-3.830083705099991,5.3849167607212189],[-3.8311189323076258,5.3852189410997129],[-3.832267653992333,5.3851896704943973],[-3.8333361332859268,5.3846415181058189],[-3.8338190221077024,5.385699753891414],[-3.8336642536147272,5.3872020950797479],[-3.833023991367837,5.3882205977012774],[-3.8323086316554837,5.3890433678967842]]]},"properties":{"OBJECTID":3,"NOMS":"Bingerville","données":"OUI","Shape_Length":42872.89779973754,"Shape_Area":119230341.11178553}},{"type":"Feature","id":4,"geometry":{"type":"Polygon","coordinates":[[[-4.0046314484529377,5.3187746235767221],[-4.004608760195989,5.3187856440776473],[-3.9934492988572439,5.321000581516512],[-3.9782136674982174,5.3214292420258564],[-3.955856377710814,5.3177925068737366],[-3.9558518130497218,5.3178946958509652],[-3.9282527849586111,5.32231498544943],[-3.9294032085721908,5.3578255508448498],[-3.929194602114177,5.3591922799009035],[-3.91562043323776,5.3876779670542474],[-3.9163724554831938,5.4289994435282329],[-3.9171838418023501,5.4283786056415515],[-3.9188062799424599,5.428596056049142],[-3.9199061388208922,5.4286752254830786],[-3.9206151062207608,5.428965858166416],[-3.9217304816377201,5.4294181208829322],[-3.9234600385021801,5.4299632881261326],[-3.9247726724166236,5.4304796909670312],[-3.9255745405748956,5.4308357534873668],[-3.9263539269667009,5.4312461212459189],[-3.9270421646402038,5.4318109636601841],[-3.9277420184705258,5.4324091418589964],[-3.9290613415426399,5.4336044881291965],[-3.9299733289932575,5.4345845012934335],[-3.9310727267123085,5.4358259723209361],[-3.9324723674430793,5.4369669127901119],[-3.933198704287201,5.4379042408889466],[-3.9338074042239164,5.4386455796879396],[-3.9345469399062987,5.4397253485740151],[-3.935261769286579,5.4406954800620575],[-3.9359187301122187,5.4416340415644715],[-3.9364804613644928,5.4422759509751275],[-3.9372754986685607,5.4431255387599435],[-3.9386388596160993,5.4441347940846203],[-3.9393492185596086,5.4445791678374142],[-3.940175273110111,5.4450550185511535],[-3.9408291791385817,5.4456532481958382],[-3.9419160372548823,5.4467850372588726],[-3.9427233193662974,5.4477001745650719],[-3.9436948741714755,5.4488660594447769],[-3.9444906480427857,5.4498140005581588],[-3.9452992893662957,5.4508715939315886],[-3.9460042532592157,5.4520062335388726],[-3.9465758857993714,5.4524734274237634],[-3.9470247668892573,5.4534462184045793],[-3.9476117217769939,5.454329469202249],[-3.9483020756135474,5.4551356712840313],[-3.9490039787489728,5.4559305474234998],[-3.9499986893922832,5.4570963808884656],[-3.9508189153480404,5.4581539449355105],[-3.9514871511775014,5.4590591092731335],[-3.9521237177719617,5.4602712960709825],[-3.9533283118033031,5.4616216512171576],[-3.9544366138863714,5.4625453332866476],[-3.9551807308555817,5.462912178751469],[-3.9559823737203681,5.4632681903225606],[-3.9572457625441202,5.4634442558362739],[-3.9579868029355998,5.4634713403933386],[-3.9593984939663724,5.4634278175807829],[-3.9601623991175519,5.4634656041210192],[-3.9609380988393439,5.4634705818289468],[-3.9620145163344493,5.4634954285805915],[-3.9631014237499822,5.4633772289112601],[-3.964176800385812,5.4632810935962315],[-3.9657258893275085,5.4630824360310921],[-3.9666621714576897,5.4629656030353662],[-3.9680293072869186,5.4631086894976759],[-3.9684272837332513,5.4634943534699758],[-3.9994561440641387,5.3998996591960617],[-4.0064977859202813,5.3999256219680252],[-4.0064915000488845,5.3996669353659446],[-4.0064818789428625,5.3974608614654933],[-4.0055071365506851,5.3896986372941971],[-4.0070291675186223,5.3784473584707007],[-4.0079280948578084,5.3775591239864937],[-4.0092608068695554,5.3766926527768968],[-4.0105231667258758,5.3761448533903424],[-4.0108090332334658,5.3757375364827933],[-4.0110229881077135,5.3751628157416649],[-4.011021803957874,5.3744448601130541],[-4.0116808146891634,5.3726815792078737],[-4.0135852276153727,5.3683476594447743],[-4.0153116122347825,5.3665555653769053],[-4.0169188954807291,5.3626702976311496],[-4.017043395430294,5.36128127899633],[-4.0168325688881668,5.3601711891523145],[-4.0162582789291248,5.359503500426011],[-4.0147685516729332,5.3578428539819258],[-4.0136173900544376,5.3547814742657085],[-4.0136400380528316,5.3511451581952123],[-4.0136951454882874,5.34836633912004],[-4.014301754607561,5.3467360734320852],[-4.0155654414189277,5.3455372065179638],[-4.0167100259490747,5.3446262811794902],[-4.0174839940457074,5.3435118893579645],[-4.017672278060239,5.3425189030375089],[-4.0177670013816833,5.3413818701015634],[-4.0157863996367418,5.3413427491160919],[-4.0150769923948362,5.3316340212989628],[-4.013621251151763,5.3280737598297989],[-4.0129010158899883,5.3269909144499383],[-4.0088469429021387,5.3229526660413713],[-4.0057122317791842,5.319870597834397],[-4.0046314484529377,5.3187746235767221]]]},"properties":{"OBJECTID":4,"NOMS":"Cocody","données":"OUI","Shape_Length":47108.079656294321,"Shape_Area":127784929.50233583}},{"type":"Feature","id":5,"geometry":{"type":"Polygon","coordinates":[[[-3.9040415887943114,5.3035910607480554],[-3.9318844184992092,5.3036278830519086],[-3.9489966525555644,5.2825633740906106],[-3.9637633385194047,5.273510840296046],[-3.9735965058623339,5.2668250086819262],[-3.9775533729517254,5.266608328402004],[-3.9804489219826178,5.2678243153991273],[-3.9910792508047326,5.2847739703509795],[-4.0019159078759001,5.2760088000604615],[-4.0108472915581288,5.2698996355161576],[-4.0366280479014627,5.2699754009828439],[-4.0366088653550465,5.2402272113007324],[-4.0342808862171582,5.2407915087137606],[-4.031060722942029,5.241036519064167],[-4.01910055265681,5.2424948581656423],[-4.0147307246110744,5.243221617819211],[-4.0105905780143223,5.2437082808877644],[-4.0073703670959562,5.2439531739386762],[-4.003761111500495,5.2444208478001846],[-4.0037434249648136,5.2430567498805498],[-4.0025217016386252,5.2441373477454709],[-4.0011795787349875,5.2445126122043568],[-3.9999261103647323,5.2446078966973904],[-3.9990761485007749,5.2448902218229936],[-3.9979075630823644,5.2442837987667055],[-3.9955735699701225,5.2448958094133999],[-3.9932376483520455,5.2442912346436792],[-3.9897360251396283,5.2449050783241917],[-3.9868161522101282,5.2443014026019155],[-3.9833145159099415,5.24491521150523],[-3.9798122020050188,5.2449207103832114],[-3.9751410313680218,5.2443197203385958],[-3.9716374892194177,5.2437163151719179],[-3.9675484040549063,5.2418966400267628],[-3.9634602715082443,5.2406857932912674],[-3.9582045261892849,5.2394767057616969],[-3.9529478720738735,5.2376587087783735],[-3.9488634506937688,5.2388820747756366],[-3.9447750701578856,5.2376710961001809],[-3.9412709368627232,5.2364592098740728],[-3.9371834852318814,5.2358570404257758],[-3.930179478287553,5.2364757844083742],[-3.9249237833580817,5.2352663993396575],[-3.9214220733113101,5.2358804291783594],[-3.9179176899844923,5.2346684028032646],[-3.9161655022890716,5.2340620986857243],[-3.912661134682013,5.2328500392757391],[-3.9097413279997753,5.2322454147673856],[-3.9091567775644167,5.2316379578597596],[-3.9050696335273449,5.2310350020524732],[-3.9003994085207863,5.2310417280086963],[-3.8951431920154502,5.2292232028750965],[-3.8904721090462426,5.2286215454386982],[-3.887552326225209,5.2280168104333473],[-3.8514963637982134,5.2275862525699468],[-3.8834288386300067,5.2673083228018616],[-3.8869098326268943,5.2723948449368976],[-3.888009283838485,5.2739688841416621],[-3.8892012464786916,5.2749582247262996],[-3.890392719953045,5.2763930521827183],[-3.8915038945632245,5.2776742187516374],[-3.8920637254131516,5.2793100781137916],[-3.8932305648991816,5.2818450864085271],[-3.9026012100929268,5.3005781884019356],[-3.9040415887943114,5.3035910607480554]]]},"properties":{"OBJECTID":5,"NOMS":"Port-bouet","données":"OUI","Shape_Length":52655.576783252029,"Shape_Area":90093744.96072951}},{"type":"Feature","id":6,"geometry":{"type":"Polygon","coordinates":[[[-3.9640699875501872,5.2733023452403787],[-3.9637633385194047,5.273510840296046],[-3.9489966525555644,5.2825633740906106],[-3.9318844184992092,5.3036278830519086],[-3.9040415887943114,5.3035910607480554],[-3.9053582589323419,5.3063451379812818],[-3.9076191402355342,5.3062033139426132],[-3.9158721112735675,5.3202838583553325],[-3.92818647425631,5.3202677002505725],[-3.9282527849586111,5.32231498544943],[-3.9558518130497218,5.3178946958509652],[-3.9560889722117785,5.3125858965970743],[-3.9543808686286819,5.3108001387468766],[-3.9534361126045323,5.3094049347885823],[-3.9535547693749242,5.3082610914889479],[-3.9549167191429513,5.3069129424156012],[-3.9558808857431957,5.3062727004443149],[-3.958962447738275,5.3057185767422856],[-3.9620482935763173,5.3058083108410958],[-3.9657660972304867,5.3059138193805646],[-3.9689542386751508,5.3056637826514343],[-3.9693398121186996,5.3049955287560167],[-3.9693178212863014,5.3034510956770253],[-3.9751640370288084,5.2927012895643752],[-3.9714224253505672,5.2904136343419488],[-3.9709832139265182,5.2894993378835062],[-3.9683051903871984,5.2790782230631992],[-3.9678637431780825,5.2782386654089564],[-3.965575315617329,5.2752611418822308],[-3.9640699875501872,5.2733023452403787]]]},"properties":{"OBJECTID":6,"NOMS":"Koumassi","données":"OUI","Shape_Length":22291.774011372076,"Shape_Area":18678276.910648581}},{"type":"Feature","id":7,"geometry":{"type":"Polygon","coordinates":[[[-4.0246788841385861,5.2699404172513189],[-4.0247195068364165,5.2962868845585955],[-4.0306987444443214,5.3063316745613847],[-4.0413005720474553,5.3006918679673269],[-4.0431198031459923,5.3046208647062718],[-4.043993839435811,5.3095411694152599],[-4.044139329536268,5.3270007213811654],[-4.0443363549134528,5.3276148821406748],[-4.0493946821080229,5.332839378682638],[-4.0537978112507611,5.3348093130630163],[-4.0540547873739632,5.3416270891684787],[-4.0533827379298195,5.3424220772888589],[-4.0512502948669917,5.3415424639131937],[-4.0503647099436453,5.3429234494851094],[-4.0508255273439628,5.3435982089508753],[-4.0508307066156908,5.3466384448381934],[-4.0504330172782579,5.3470998540316668],[-4.0501161734925217,5.3518379271376162],[-4.0511898148479561,5.3542682643301749],[-4.0574087268766581,5.3564157042570271],[-4.057436020969166,5.3588843626036349],[-4.0572185686961575,5.3596946201449258],[-4.0574717921423122,5.3605269961652171],[-4.0591012916193208,5.3606937015776719],[-4.0600641612704322,5.3617376030910764],[-4.0606547916381528,5.3634004995750306],[-4.0608399057887814,5.364586943951041],[-4.0615192649464467,5.3658760407418145],[-4.0620267188178207,5.3669505225653413],[-4.0617570447982843,5.3681386588543445],[-4.063653822357657,5.3694016563909548],[-4.0645581274729672,5.3703051437101035],[-4.0657310942534561,5.3698502841836069],[-4.0670906924174535,5.3704864306990956],[-4.0683788456680858,5.3705563329369017],[-4.0696626473891211,5.3706668048498081],[-4.0704299880344017,5.3707155169186542],[-4.0725948452071856,5.3730334367085009],[-4.0744920359374568,5.3740860584170482],[-4.0744277041512262,5.3767862265214017],[-4.0744079754136271,5.3776142995519116],[-4.0742486028278719,5.3789923819650927],[-4.0746120993784158,5.3909094366776555],[-4.0754270392395817,5.3924462011369769],[-4.0764189227491237,5.3924438813091635],[-4.082599982526987,5.397406489557671],[-4.083116641654553,5.3982533891599402],[-4.0862032411064426,5.394653794855766],[-4.0785412980020634,5.3873998360721274],[-4.1058035028225106,5.3876544972461309],[-4.1063967291091368,5.3714936695587268],[-4.1252234722289698,5.3704694257184578],[-4.1227773935043297,5.360495815998477],[-4.1435982086761065,5.3351155819064999],[-4.1435949070523845,5.3156326348773284],[-4.1470426608446838,5.3107132439238569],[-4.1424657865886143,5.3094814667041668],[-4.14093949634543,5.3081450981051042],[-4.1357031582584138,5.2944507747687171],[-4.1356226957048419,5.2900675946432552],[-4.1356729754937946,5.2877961313584265],[-4.1328636496231619,5.2285142989515645],[-4.122894825498074,5.2296147829931918],[-4.1133413453424135,5.2309314550764086],[-4.1105484590098378,5.2313134678903923],[-4.1085681762712003,5.2310705005527707],[-4.1030485791336453,5.2317998731995408],[-4.0995982065535284,5.2320456267084836],[-4.0936188454131761,5.2330154174140571],[-4.0869495163407299,5.2339863523612884],[-4.0811997562932119,5.2347159422461766],[-4.0784395570460763,5.2349603924298922],[-4.0754495617615678,5.2352057908228966],[-4.0724592787736142,5.2354506105882281],[-4.0671700187724085,5.2364189814763709],[-4.0574392295704325,5.2374909321787158],[-4.049920420119256,5.2386065181736914],[-4.0464702125508278,5.2388525556478962],[-4.0412350996676496,5.2398946869580447],[-4.0372701724345017,5.2400669100688049],[-4.0366088653550465,5.2402272113007324],[-4.0366280479014627,5.2699754009828439],[-4.0246788841385861,5.2699404172513189]]]},"properties":{"OBJECTID":7,"NOMS":"Yopougon","données":"OUI","Shape_Length":60846.006482510951,"Shape_Area":166463572.51735213}},{"type":"Feature","id":8,"geometry":{"type":"Polygon","coordinates":[[[-3.9911533514146256,5.2847140369670562],[-3.9910792508047326,5.2847739703509795],[-3.9804489219826178,5.2678243153991273],[-3.9775533729517254,5.266608328402004],[-3.9735965058623339,5.2668250086819262],[-3.9640699875501872,5.2733023452403787],[-3.965575315617329,5.2752611418822308],[-3.9678637431780825,5.2782386654089564],[-3.9683051903871984,5.2790782230631992],[-3.9709832139265182,5.2894993378835062],[-3.9714224253505672,5.2904136343419488],[-3.9751640370288084,5.2927012895643752],[-3.9693178212863014,5.3034510956770253],[-3.9693398121186996,5.3049955287560167],[-3.9689542386751508,5.3056637826514343],[-3.9657660972304867,5.3059138193805646],[-3.9620482935763173,5.3058083108410958],[-3.958962447738275,5.3057185767422856],[-3.9558808857431957,5.3062727004443149],[-3.9549167191429513,5.3069129424156012],[-3.9535547693749242,5.3082610914889479],[-3.9534361126045323,5.3094049347885823],[-3.9543808686286819,5.3108001387468766],[-3.9560889722117785,5.3125858965970743],[-3.955856377710814,5.3177925068737366],[-3.9782136674982174,5.3214292420258564],[-3.9934492988572439,5.321000581516512],[-4.004608760195989,5.3187856440776473],[-4.0046329154984699,5.318773911141558],[-4.0013124439406642,5.3150938058484911],[-3.9945539797748419,5.3039975833896635],[-3.9932668841810823,5.3013427057825071],[-3.9918439435656783,5.2911085968009708],[-3.9911533514146256,5.2847140369670562]]]},"properties":{"OBJECTID":8,"NOMS":"Marcory","données":"OUI","Shape_Length":21065.2654749305,"Shape_Area":17154212.744402345}},{"type":"Feature","id":9,"geometry":{"type":"Polygon","coordinates":[[[-3.9911533514146256,5.2847140369670562],[-3.9918439435656783,5.2911085968009708],[-3.9932668841810823,5.3013427057825071],[-3.9945539797748419,5.3039975833896635],[-4.0013124439406642,5.3150938058484911],[-4.0046329154984699,5.318773911141558],[-4.0305973002559483,5.3061612587935327],[-4.0247195068364165,5.2962868845585955],[-4.0246788841385861,5.2699404172513189],[-4.0108472915581288,5.2698996355161576],[-4.0019159078759001,5.2760088000604615],[-3.9911533514146256,5.2847140369670562]]]},"properties":{"OBJECTID":9,"NOMS":"Treichville","données":"OUI","Shape_Length":15810.904829949202,"Shape_Area":15886376.081858305}},{"type":"Feature","id":10,"geometry":{"type":"Polygon","coordinates":[[[-4.0215013825648231,5.4014604998886684],[-4.0062263620298113,5.3843819375667827],[-4.0055071365506851,5.3896986372941971],[-4.0064818789428625,5.3974608614654933],[-4.0064915000488845,5.3996669353659446],[-4.0064977859202813,5.3999256219680252],[-3.9994561440641387,5.3998996591960617],[-3.9684272837332513,5.4634943534699758],[-3.9696664475314507,5.4646951783337823],[-3.9707898535964716,5.4662236984951429],[-3.9710646432415468,5.4671317317114356],[-3.9715003169293177,5.4679287003928172],[-3.9721655760372996,5.4685376085840023],[-3.9739023732085474,5.4685901933584447],[-3.974614535045951,5.4680254080626067],[-3.9750712820230558,5.4673745425983249],[-3.9754538582802095,5.4662093521433324],[-3.9760275746417619,5.4656787103328073],[-3.9775610179940175,5.4650526621360092],[-3.9794097753221256,5.4647534188247517],[-3.9808996890250858,5.4644230984317037],[-3.9820450660840456,5.4643596056629873],[-3.9830388307734799,5.4642098645474224],[-3.9842304267796615,5.4641231137907162],[-3.9855377785894546,5.464102313511976],[-3.9869855304699455,5.4642118691548029],[-3.9880996585697392,5.4645317050473787],[-3.989366835437731,5.4651254677411236],[-3.9904147126204861,5.4658083447788286],[-3.9916597718261806,5.4664999388976838],[-3.9926379478391989,5.4671620094081135],[-3.9934398720801343,5.4675060937524744],[-3.9948213247515363,5.4679453208402959],[-3.9963286068271593,5.4682294374476044],[-3.9970700017939338,5.4683005668107629],[-3.9991622070605874,5.4680212095066345],[-4.0000117330080682,5.4673024024821677],[-4.0006768403858093,5.4666172560487372],[-4.0011682861247211,5.4659883655549377],[-4.0018221438240209,5.4653247192546175],[-4.0026927527606988,5.4643972713613866],[-4.0036575225120528,5.46361099525312],[-4.0046079020420748,5.4624849849422299],[-4.0056244061155066,5.4610954241046947],[-4.006481288474844,5.4598938158033707],[-4.0069601104450356,5.4591439653256533],[-4.0079238005650186,5.4582265325213992],[-4.0090552480796724,5.4579436704164666],[-4.0105134578330546,5.45791012803718],[-4.0124124827776368,5.458016038789907],[-4.0148515678053061,5.4589073891692239],[-4.0164673867794676,5.4596734904168587],[-4.0350748557287393,5.4593975084483031],[-4.0778690709440468,5.4514113639068364],[-4.0926777958342324,5.4347403994289154],[-4.092644593632623,5.4211544928832582],[-4.0661133700029692,5.4212984899192058],[-4.0660116893452347,5.4211654115651822],[-4.0667549787879578,5.4222425565767516],[-4.0658422545609492,5.4229281620267873],[-4.0646415407946934,5.4242768727489254],[-4.064090204887858,5.4252756152047645],[-4.0622643437512744,5.4252318815857352],[-4.0596838233482577,5.4218688770762382],[-4.0573393150401857,5.422416243169331],[-4.0570674547123886,5.4217841349749278],[-4.057786081199616,5.4201542175102224],[-4.0571690885919303,5.4201557252613233],[-4.0557605629644335,5.4204823355630136],[-4.0551583581740021,5.4199803806362032],[-4.0548183660452866,5.4192833985525288],[-4.0540834835458375,5.4187140448539237],[-4.0534025391273687,5.420146763832892],[-4.0529726890025009,5.4210804377405708],[-4.0500258523396582,5.4208907664716408],[-4.0483969549378838,5.4185418893691573],[-4.0477636869214244,5.4180014159078898],[-4.0446053408992686,5.4176450729301884],[-4.044546992525424,5.4156840003001223],[-4.0437943280479818,5.4137993731341405],[-4.0411637804254479,5.4122743496506684],[-4.0352048581810651,5.4108442777075583],[-4.0327036850324731,5.4105033410551577],[-4.0312362272285576,5.4107926179416097],[-4.0302448794687011,5.4119712918890315],[-4.0247420390436845,5.4133373819590895],[-4.0240343377735375,5.4099971379231881],[-4.0213997358813023,5.4097113975363644],[-4.0215961165340808,5.4021613365414547],[-4.0215013825648231,5.4014604998886684]]]},"properties":{"OBJECTID":10,"NOMS":"Abobo","données":"OUI","Shape_Length":41108.012663362548,"Shape_Area":61687575.4501867}},{"type":"Feature","id":11,"geometry":{"type":"Polygon","coordinates":[[[-4.0622643437512744,5.4252318815857352],[-4.064090204887858,5.4252756152047645],[-4.0646415407946934,5.4242768727489254],[-4.0658422545609492,5.4229281620267873],[-4.0667549787879578,5.4222425565767516],[-4.0660116893452347,5.4211654115651822],[-4.0650470656101021,5.4199029218650656],[-4.0737051137754445,5.411903773538862],[-4.0747116455050572,5.4096356687634586],[-4.0759940592350237,5.4064433608869624],[-4.0772886668873838,5.4050498407729153],[-4.083116641654553,5.3982533891599402],[-4.082599982526987,5.397406489557671],[-4.0764189227491237,5.3924438813091635],[-4.0754270392395817,5.3924462011369769],[-4.0746120993784158,5.3909094366776555],[-4.0742486028278719,5.3789923819650927],[-4.0744079754136271,5.3776142995519116],[-4.0744277041512262,5.3767862265214017],[-4.0744920359374568,5.3740860584170482],[-4.0725948452071856,5.3730334367085009],[-4.0704299880344017,5.3707155169186542],[-4.0696626473891211,5.3706668048498081],[-4.0683788456680858,5.3705563329369017],[-4.0670906924174535,5.3704864306990956],[-4.0657310942534561,5.3698502841836069],[-4.0645581274729672,5.3703051437101035],[-4.063653822357657,5.3694016563909548],[-4.0617570447982843,5.3681386588543445],[-4.0620267188178207,5.3669505225653413],[-4.0615192649464467,5.3658760407418145],[-4.0608399057887814,5.364586943951041],[-4.0606547916381528,5.3634004995750306],[-4.0600641612704322,5.3617376030910764],[-4.0591012916193208,5.3606937015776719],[-4.0574717921423122,5.3605269961652171],[-4.0572185686961575,5.3596946201449258],[-4.0572432673039813,5.3596025925603366],[-4.057436020969166,5.3588843626036349],[-4.0574087268766581,5.3564157042570271],[-4.0511898148479561,5.3542682643301749],[-4.0501161734925217,5.3518379271376162],[-4.0504330172782579,5.3470998540316668],[-4.0508307066156908,5.3466384448381934],[-4.0508255273439628,5.3435982089508753],[-4.0503647099436453,5.3429234494851094],[-4.0512502948669917,5.3415424639131937],[-4.0533827379298195,5.3424220772888589],[-4.0540547873739632,5.3416270891684787],[-4.0537978112507611,5.3348093130630163],[-4.0493946821080229,5.332839378682638],[-4.0443363549134528,5.3276148821406748],[-4.044139329536268,5.3270007213811654],[-4.043993839435811,5.3095411694152599],[-4.0431198031459923,5.3046208647062718],[-4.0413005720474553,5.3006918679673269],[-4.0306987444443214,5.3063316745613847],[-4.0305973002559483,5.3061612587935327],[-4.0240482660889754,5.3093427071270902],[-4.0256248008859625,5.3130693431263403],[-4.0292568510121765,5.3218196718032722],[-4.0296715443949509,5.3228187279369958],[-4.0340029581012038,5.3341743041049678],[-4.0290268595736576,5.3353916893228934],[-4.0297751357442557,5.3395240224382396],[-4.0297346672809145,5.3395265478338132],[-4.0308597534323098,5.3405820836111646],[-4.0314719073495917,5.3411792464022518],[-4.0307085137684506,5.3440373791187872],[-4.030499135189876,5.3456897355300157],[-4.0308249416365678,5.3472615454178944],[-4.0311873744811235,5.3491134290587246],[-4.03301175482689,5.3530121430479678],[-4.0331632303676619,5.353972314664893],[-4.0326194877388426,5.3550590395942939],[-4.030199517011515,5.3584003109257274],[-4.0293767574612609,5.3589997972867849],[-4.0307342157288542,5.3639530627244367],[-4.0322612647990921,5.3641474845941328],[-4.0312481755828315,5.3645282278023094],[-4.0313915291859264,5.3669889567351818],[-4.0320381532244793,5.3721522398982948],[-4.0322335305989236,5.3757972416585709],[-4.0321796474941882,5.3779975419461845],[-4.0315437839279369,5.3793158488451756],[-4.0307115809714587,5.3800762395793758],[-4.0289296626096913,5.381310181754098],[-4.0277332111646338,5.3829914420714964],[-4.0269670972545706,5.385887406132829],[-4.0221360356715214,5.3964601180302356],[-4.0215909161768879,5.3995524446594301],[-4.0215082708188099,5.4014682019516131],[-4.0215013825648231,5.4014604998886684],[-4.0215961165340808,5.4021613365414547],[-4.0213997358813023,5.4097113975363644],[-4.0240343377735375,5.4099971379231881],[-4.0247420390436845,5.4133373819590895],[-4.0302448794687011,5.4119712918890315],[-4.0312362272285576,5.4107926179416097],[-4.0327036850324731,5.4105033410551577],[-4.0352048581810651,5.4108442777075583],[-4.0411637804254479,5.4122743496506684],[-4.0437943280479818,5.4137993731341405],[-4.044546992525424,5.4156840003001223],[-4.0446053408992686,5.4176450729301884],[-4.0477636869214244,5.4180014159078898],[-4.0483969549378838,5.4185418893691573],[-4.0500258523396582,5.4208907664716408],[-4.0529726890025009,5.4210804377405708],[-4.0534025391273687,5.420146763832892],[-4.0540834835458375,5.4187140448539237],[-4.0548183660452866,5.4192833985525288],[-4.0551583581740021,5.4199803806362032],[-4.0557605629644335,5.4204823355630136],[-4.0571690885919303,5.4201557252613233],[-4.057786081199616,5.4201542175102224],[-4.0570674547123886,5.4217841349749278],[-4.0573393150401857,5.422416243169331],[-4.0596838233482577,5.4218688770762382],[-4.0622643437512744,5.4252318815857352]]]},"properties":{"OBJECTID":11,"NOMS":"Attécoubé","données":"OUI","Shape_Length":39289.97859547707,"Shape_Area":44994483.097538345}},{"type":"Feature","id":12,"geometry":{"type":"Polygon","coordinates":[[[-4.0177640325389135,5.3414175073467334],[-4.0179561300443156,5.341305202245751],[-4.0215875799361598,5.3415191199206484],[-4.0216341694954583,5.3408728855115992],[-4.0238056542827767,5.3400433447350553],[-4.0238027185964347,5.3382722135475502],[-4.0258681591799359,5.3382930786003104],[-4.0263121848645067,5.3397401115022962],[-4.0297751357442557,5.3395240224382396],[-4.0290268595736576,5.3353916893228934],[-4.0340029581012038,5.3341743041049678],[-4.0296715443949509,5.3228187279369958],[-4.0292568510121765,5.3218196718032722],[-4.0256248008859625,5.3130693431263403],[-4.0240482660889754,5.3093427071270902],[-4.0046314484529377,5.3187746235767221],[-4.0057122317791842,5.319870597834397],[-4.0088469429021387,5.3229526660413713],[-4.0129010158899883,5.3269909144499383],[-4.013621251151763,5.3280737598297989],[-4.0150769923948362,5.3316340212989628],[-4.0157863996367418,5.3413427491160919],[-4.0177670013816833,5.3413818701015634],[-4.0177640325389135,5.3414175073467334]]]},"properties":{"OBJECTID":12,"NOMS":"Plateau","données":"OUI","Shape_Length":11274.797484274715,"Shape_Area":6128283.8433116209}},{"type":"Feature","id":13,"geometry":{"type":"Polygon","coordinates":[[[-4.0297346672809145,5.3395265478338132],[-4.0263121848645067,5.3397401115022962],[-4.0258681591799359,5.3382930786003104],[-4.0238027185964347,5.3382722135475502],[-4.0238056542827767,5.3400433447350553],[-4.0216341694954583,5.3408728855115992],[-4.0215875799361598,5.3415191199206484],[-4.0179561300443156,5.341305202245751],[-4.0177640325389135,5.3414175073467334],[-4.017672278060239,5.3425189030375089],[-4.0174839940457074,5.3435118893579645],[-4.0167100259490747,5.3446262811794902],[-4.0155654414189277,5.3455372065179638],[-4.014301754607561,5.3467360734320852],[-4.0136951454882874,5.34836633912004],[-4.0136400380528316,5.3511451581952123],[-4.0136173900544376,5.3547814742657085],[-4.0147685516729332,5.3578428539819258],[-4.0162582789291248,5.359503500426011],[-4.0168325688881668,5.3601711891523145],[-4.017043395430294,5.36128127899633],[-4.0169188954807291,5.3626702976311496],[-4.0153116122347825,5.3665555653769053],[-4.0135852276153727,5.3683476594447743],[-4.0116808146891634,5.3726815792078737],[-4.011021803957874,5.3744448601130541],[-4.0110229881077135,5.3751628157416649],[-4.0108090332334658,5.3757375364827933],[-4.0105231667258758,5.3761448533903424],[-4.0092608068695554,5.3766926527768968],[-4.0079280948578084,5.3775591239864937],[-4.0070291675186223,5.3784473584707007],[-4.0062263620298113,5.3843819375667827],[-4.0215082708188099,5.4014682019516131],[-4.0215909161768879,5.3995524446594301],[-4.0221360356715214,5.3964601180302356],[-4.0269670972545706,5.385887406132829],[-4.0277332111646338,5.3829914420714964],[-4.0289296626096913,5.381310181754098],[-4.0307115809714587,5.3800762395793758],[-4.0315437839279369,5.3793158488451756],[-4.0321796474941882,5.3779975419461845],[-4.0322335305989236,5.3757972416585709],[-4.0320381532244793,5.3721522398982948],[-4.0313915291859264,5.3669889567351818],[-4.0312481755828315,5.3645282278023094],[-4.0322612647990921,5.3641474845941328],[-4.0307342157288542,5.3639530627244367],[-4.0293767574612609,5.3589997972867849],[-4.030199517011515,5.3584003109257274],[-4.0326194877388426,5.3550590395942939],[-4.0331632303676619,5.353972314664893],[-4.03301175482689,5.3530121430479678],[-4.0311873744811235,5.3491134290587246],[-4.0308249416365678,5.3472615454178944],[-4.030499135189876,5.3456897355300157],[-4.0307085137684506,5.3440373791187872],[-4.0314719073495917,5.3411792464022518],[-4.0308597534323098,5.3405820836111646],[-4.0297346672809145,5.3395265478338132]]]},"properties":{"OBJECTID":13,"NOMS":"Adjamé","données":"OUI","Shape_Length":17430.359051499414,"Shape_Area":11823109.844678858}},{"type":"Feature","id":14,"geometry":{"type":"Polygon","coordinates":[[[-3.8514963637982134,5.2275862525699468],[-3.8485758322035122,5.2266257258083852],[-3.8465861725998201,5.2259364268930319],[-3.8447622452258323,5.2251960164381002],[-3.8437403687812557,5.2245495009196858],[-3.8427427505020342,5.2243309203753521],[-3.8419812624743286,5.2244139180923455],[-3.8419812624743286,5.2244139180923455],[-3.8400999802806477,5.2237928582271831],[-3.8391586732498904,5.2235103116682868],[-3.838369749237267,5.2233180160903139],[-3.8375874391719766,5.2227972421285855],[-3.8366362056546239,5.2224700419230397],[-3.8352603078877276,5.2219144381915497],[-3.8336662987089509,5.2212443544207909],[-3.8319714611268041,5.2206603329856058],[-3.8305942177690726,5.220148816900763],[-3.8288363311521447,5.2194320118148072],[-3.8276934941549658,5.2187714917402959],[-3.8264058532011349,5.21820670412691],[-3.8257746004668327,5.217831009594506],[-3.8244623067484986,5.2173866698193292],[-3.8230088984303787,5.2168407483741355],[-3.8215029022596529,5.2161840827774961],[-3.8200258968088874,5.2157026346378546],[-3.8189456180609822,5.2152195353188775],[-3.8177983016872936,5.2147890989185592],[-3.8160544706145547,5.2144566753848718],[-3.8145232917826326,5.2139424927970648],[-3.8121830590710157,5.2131359326861748],[-3.8101028126049163,5.2125557352303531],[-3.8077041764016131,5.2119346682680172],[-3.8051091651817841,5.2112115134814045],[-3.8029642571465767,5.2105522233895911],[-3.8007195897838457,5.2099348885333043],[-3.7985141287582982,5.2095487258237938],[-3.7971208904251714,5.2092892973733296],[-3.7956627161385654,5.2089626703455307],[-3.7943024979293418,5.2087263731555371],[-3.7928381155924358,5.208169081450813],[-3.791182266889785,5.2078268622062849],[-3.7890671921604477,5.2073336982640441],[-3.7873233576977725,5.2069791406051369],[-3.7857989685287694,5.2066842319448954],[-3.7836917015151355,5.206344250990913],[-3.7820361282012054,5.2059912640584391],[-3.7805033882389907,5.2055533165303354],[-3.7784781642500822,5.2049735033775386],[-3.7771723898753509,5.2047489721495168],[-3.7756375332813716,5.2044206940874105],[-3.7743422062748868,5.2042074509924801],[-3.773445750353241,5.2039038234403998],[-3.7724840921270033,5.2035431731102468],[-3.7702612661519002,5.203464482450487],[-3.7684965274571516,5.2030657969286995],[-3.7675957887884484,5.2029481691093267],[-3.7657626785551797,5.2026688497838709],[-3.7643367368434264,5.2023980769925098],[-3.762639581873148,5.2019235337586949],[-3.7616422783129235,5.2016940723845888],[-3.7598759341471721,5.2013615103822008],[-3.7583955615804632,5.2010783509967657],[-3.7573998469943248,5.2007612495368587],[-3.7561142083970807,5.2006254098634024],[-3.754225568584316,5.2003551676249806],[-3.7525268240122625,5.1999580517563686],[-3.7509369985756522,5.1996286447883762],[-3.7484904292426613,5.1991826555866414],[-3.746251752292995,5.1988070808160716],[-3.7434561953617198,5.1981896134884886],[-3.7403693912426492,5.1978291500179967],[-3.7379976934172578,5.1975057141599859],[-3.7362538954090332,5.1971515722634516],[-3.734039618802278,5.1966555009417776],[-3.7326330330247961,5.1965276672752436],[-3.7306177673256933,5.1959810346514566],[-3.7288761301448314,5.1955386716962852],[-3.727507053222805,5.1951699371147493],[-3.7261975561793892,5.1951211277097364],[-3.7254728033144544,5.1950292412525103],[-3.7241611380663469,5.1945631900611531],[-3.7229015064296713,5.1942293719285502],[-3.7214347853998517,5.1937821491911178],[-3.7203170742991243,5.1935284453065185],[-3.7195687120040946,5.1935015957706296],[-3.7179097070890683,5.1933140866754774],[-3.7162662561472248,5.1929179350744272],[-3.7146850260688922,5.1926873610305044],[-3.7135761578495607,5.1925212664692042],[-3.7114284368798631,5.1920159899486062],[-3.7094049208425512,5.1918865356653727],[-3.7080795755831368,5.1915295798621521],[-3.7064272695960274,5.1910237296811168],[-3.7044493489384656,5.1908178832274467],[-3.7026444462826218,5.1907695757893002],[-3.7007134708610145,5.1904336303235992],[-3.6980341107760029,5.1900487535692292],[-3.6955937862821342,5.1898558274681603],[-3.6938462623714461,5.1896768308732408],[-3.6924557553037594,5.1892859898311645],[-3.6905626214117428,5.1892580971701356],[-3.6895513934790674,5.1891602618131838],[-3.6878159594502447,5.1889484433797159],[-3.6860029959702247,5.1887463154965312],[-3.6841487362895755,5.1884226722557942],[-3.6820431357640233,5.1879947009889511],[-3.6795453882280129,5.1873613489164239],[-3.6776173633999232,5.1868715456005932],[-3.6754119992980638,5.1864854954148756],[-3.6724263456768034,5.1860064158039778],[-3.6700675600879022,5.1855848908474789],[-3.6677758266574134,5.1851090100949495],[-3.6653186034988225,5.1846519520245158],[-3.6623235875008988,5.1841072491332012],[-3.6417734783733664,5.1804331405408046],[-3.6380915168654577,5.1929746411438051],[-3.6400530048042259,5.1956067408675493],[-3.6477139850801592,5.1957645792012999],[-3.6583064593358579,5.1963455643439769],[-3.6681513698280717,5.1968672318242497],[-3.6721094060060326,5.1971790707571328],[-3.6721094060060326,5.1971790707571328],[-3.6731570396309055,5.1941051575062422],[-3.6746585417128017,5.1941329538745382],[-3.6771561563116539,5.1943536012917866],[-3.6797467618042412,5.1945204282003248],[-3.6822352581103894,5.194651736307649],[-3.6850984356103593,5.1952575391279785],[-3.6869396561335441,5.1957587172948312],[-3.6897317159399918,5.1960423143631171],[-3.6925421571302937,5.196890117456257],[-3.6946778163880838,5.1974435276626858],[-3.6977188139709489,5.1981977661015497],[-3.6992342092751844,5.1985471820401861],[-3.7007826454748765,5.1989417868853991],[-3.7027061225056368,5.1993568884951973],[-3.7040858543420749,5.1996696942546228],[-3.705612544470672,5.2000298232836411],[-3.7066706803107268,5.20045605638943],[-3.707465511907309,5.2009300739447806],[-3.7086608409643378,5.2017468183625688],[-3.709945082670032,5.2026431767320451],[-3.7108239655384803,5.2033856440963735],[-3.7118981601585976,5.2040442149400787],[-3.712740207654635,5.2048737871755959],[-3.7143414782862187,5.2058449698086005],[-3.7186756172852977,5.2088121698875041],[-3.7205140037715343,5.2102432712253393],[-3.7207999675738712,5.2110254102640718],[-3.7208814711007663,5.2117795150718766],[-3.7215496975818239,5.2127268675755918],[-3.722223619353203,5.2134740730506257],[-3.7229098988310096,5.2141777302050798],[-3.7235552910940992,5.2151245406273086],[-3.7237604760110186,5.2167672566541485],[-3.723715354993296,5.2179935863717137],[-3.7232268619772286,5.219618443951016],[-3.7222842515423826,5.2216180958998795],[-3.7217257814589511,5.2224667864986039],[-3.7209682821268002,5.2231110430026026],[-3.7202209842729226,5.223799950985911],[-3.7196126016958093,5.224403328778922],[-3.7189206328462387,5.2251487087445012],[-3.7185225675129949,5.2259683799696131],[-3.7179734812560983,5.2268939473672482],[-3.7171441318097833,5.2280895146208959],[-3.7166847656686888,5.2290619041351842],[-3.7162573637354668,5.2301241501841753],[-3.7154231838858593,5.2307973231469802],[-3.7170237238300277,5.2365079528414569],[-3.7204884538956406,5.2431577624928867],[-3.7224137438490876,5.2469864559091297],[-3.7247823263311313,5.2490885667085925],[-3.7271757977605624,5.2505105037633184],[-3.727807466675952,5.2524676248382018],[-3.7278857926986984,5.2550823435751637],[-3.7273493477116051,5.2581574204387733],[-3.7267376114541149,5.2622078385404674],[-3.7269380570520245,5.2653199350855768],[-3.7272774948998979,5.2686433147920413],[-3.7269714061777393,5.2712064681176409],[-3.7258557529912926,5.2740611641836361],[-3.7241568382773989,5.2763647436680792],[-3.7223532520401212,5.2783919784848905],[-3.7207302376458458,5.2807525651949208],[-3.7196656880747487,5.2827184426411202],[-3.7187106477868395,5.2852574722442736],[-3.7177559123698241,5.2883121137257794],[-3.7171780840491246,5.2912543764100004],[-3.7167805029054315,5.293991768349346],[-3.7165065422192258,5.2960833704190327],[-3.716346514612463,5.2974421276327037],[-3.716346514612463,5.2974421276327037],[-3.750700653366108,5.2844685113835439],[-3.7850531312212952,5.2714931913187861],[-3.8049210872314627,5.2853331037676741],[-3.8049210872314627,5.2853331037676741],[-3.8157577608405062,5.2734770812176253],[-3.8173464691031951,5.2717201417752673],[-3.8181314705289227,5.269945600155383],[-3.8183170026554434,5.2684234282220528],[-3.8183399309093451,5.2667657855188805],[-3.8180689438296542,5.2654754424803789],[-3.8174790332207511,5.264188909823365],[-3.8164124424065338,5.2630251170962818],[-3.8155288753143823,5.2620843967093665],[-3.8150798181385337,5.2609000048905612],[-3.8149382983552651,5.2591950859608705],[-3.8149245404478287,5.2577229252350319],[-3.8148761993581952,5.2563276975918933],[-3.8146765241062819,5.2547862410403576],[-3.8143781393596106,5.2532313445171379],[-3.8145036358542321,5.2519382185363215],[-3.8149132387923506,5.250760619254125],[-3.8155823953912908,5.2503351657204007],[-3.8179904964522273,5.2505270630427665],[-3.8400409877916664,5.2535190198227646],[-3.8400409877916664,5.2535190198227646],[-3.8514963637982134,5.2275862525699468]]]},"properties":{"OBJECTID":14,"NOMS":"Grand-Bassam","données":" ","Shape_Length":67435.3723964206,"Shape_Area":113091544.42190009}}]
}